start=new Date('2022-11-30T00:00:00.000Z').valueOf();
sats=[{"BSTAR":"0.00026093000000","OBJECT_TYPE":"PAYLOAD","CLASSIFICATION_TYPE":"U","DECAY_DATE":null,"ECCENTRICITY":"0.00015000","TIME_SYSTEM":"UTC","FILE":"3673336","NORAD_CAT_ID":"48282","PERIOD":"95.592","OBJECT_NAME":"STARLINK-2558","ELEMENT_SET_NO":"999","CENTER_NAME":"EARTH","SEMIMAJOR_AXIS":"6925.342","EPHEMERIS_TYPE":"0","MEAN_ANOMALY":"284.4404","PERIAPSIS":"546.168","SITE":"AFETR","RA_OF_ASC_NODE":"51.5270","MEAN_MOTION":"15.06402259","ARG_OF_PERICENTER":"75.6752","TLE_LINE1":"1 48282U 21036G   22333.50015146  .00003607  00000-0  26093-3 0  9990","GP_ID":"219072730","TLE_LINE2":"2 48282  53.0543  51.5270 0001500  75.6752 284.4404 15.06402259 88022","REV_AT_EPOCH":"8802","RCS_SIZE":"LARGE","REF_FRAME":"TEME","LAUNCH_DATE":"2021-04-29","MEAN_MOTION_DDOT":"0.0000000000000","INCLINATION":"53.0543","APOAPSIS":"548.245","COUNTRY_CODE":"US","OBJECT_ID":"2021-036G","MEAN_ELEMENT_THEORY":"SGP4","MEAN_MOTION_DOT":"0.00003607","EPOCH":"2022-11-29T12:00:13.086144"},{"TIME_SYSTEM":"UTC","FILE":"3673336","NORAD_CAT_ID":"48283","DECAY_DATE":null,"ECCENTRICITY":"0.00017140","CLASSIFICATION_TYPE":"U","BSTAR":"0.00008991400000","OBJECT_TYPE":"PAYLOAD","EPHEMERIS_TYPE":"0","MEAN_ANOMALY":"292.3690","SEMIMAJOR_AXIS":"6925.353","ELEMENT_SET_NO":"999","CENTER_NAME":"EARTH","PERIOD":"95.592","OBJECT_NAME":"STARLINK-2516","REV_AT_EPOCH":"8802","TLE_LINE1":"1 48283U 21036H   22333.49646252  .00001058  00000-0  89914-4 0  9997","TLE_LINE2":"2 48283  53.0569  51.5403 0001714  67.7481 292.3690 15.06398496 88029","GP_ID":"219072480","RA_OF_ASC_NODE":"51.5403","ARG_OF_PERICENTER":"67.7481","MEAN_MOTION":"15.06398496","PERIAPSIS":"546.031","SITE":"AFETR","OBJECT_ID":"2021-036H","EPOCH":"2022-11-29T11:54:54.361728","MEAN_ELEMENT_THEORY":"SGP4","MEAN_MOTION_DOT":"0.00001058","APOAPSIS":"548.405","COUNTRY_CODE":"US","MEAN_MOTION_DDOT":"0.0000000000000","INCLINATION":"53.0569","LAUNCH_DATE":"2021-04-29","RCS_SIZE":"MEDIUM","REF_FRAME":"TEME"},{"RCS_SIZE":"LARGE","REF_FRAME":"TEME","LAUNCH_DATE":"2021-04-29","MEAN_MOTION_DDOT":"0.0000000000000","INCLINATION":"53.0573","APOAPSIS":"548.061","COUNTRY_CODE":"US","OBJECT_ID":"2021-036J","MEAN_MOTION_DOT":"0.00001659","MEAN_ELEMENT_THEORY":"SGP4","EPOCH":"2022-11-29T11:49:35.950944","PERIAPSIS":"546.387","SITE":"AFETR","RA_OF_ASC_NODE":"51.5636","MEAN_MOTION":"15.06396522","ARG_OF_PERICENTER":"110.1564","TLE_LINE1":"1 48284U 21036J   22333.49277721  .00001659  00000-0  13027-3 0  9997","GP_ID":"219071729","TLE_LINE2":"2 48284  53.0573  51.5636 0001209 110.1564 249.9555 15.06396522 88012","REV_AT_EPOCH":"8801","PERIOD":"95.592","OBJECT_NAME":"STARLINK-2564","ELEMENT_SET_NO":"999","CENTER_NAME":"EARTH","SEMIMAJOR_AXIS":"6925.359","MEAN_ANOMALY":"249.9555","EPHEMERIS_TYPE":"0","BSTAR":"0.00013027000000","OBJECT_TYPE":"PAYLOAD","CLASSIFICATION_TYPE":"U","DECAY_DATE":null,"ECCENTRICITY":"0.00012090","TIME_SYSTEM":"UTC","FILE":"3673336","NORAD_CAT_ID":"48284"},{"CENTER_NAME":"EARTH","ELEMENT_SET_NO":"999","OBJECT_NAME":"STARLINK-2548","PERIOD":"95.593","EPHEMERIS_TYPE":"0","MEAN_ANOMALY":"288.6718","SEMIMAJOR_AXIS":"6925.374","CLASSIFICATION_TYPE":"U","BSTAR":"0.00021271000000","OBJECT_TYPE":"PAYLOAD","NORAD_CAT_ID":"48285","FILE":"3673849","TIME_SYSTEM":"UTC","ECCENTRICITY":"0.00015190","DECAY_DATE":null,"LAUNCH_DATE":"2021-04-29","MEAN_MOTION_DDOT":"0.0000000000000","INCLINATION":"53.0570","REF_FRAME":"TEME","RCS_SIZE":"LARGE","MEAN_ELEMENT_THEORY":"SGP4","MEAN_MOTION_DOT":"0.00002887","EPOCH":"2022-11-29T14:54:01.074528","OBJECT_ID":"2021-036K","COUNTRY_CODE":"US","APOAPSIS":"548.291","MEAN_MOTION":"15.06391617","ARG_OF_PERICENTER":"71.4436","RA_OF_ASC_NODE":"50.9784","SITE":"AFETR","PERIAPSIS":"546.187","REV_AT_EPOCH":"8803","GP_ID":"219110347","TLE_LINE2":"2 48285  53.0570  50.9784 0001519  71.4436 288.6718 15.06391617 88031","TLE_LINE1":"1 48285U 21036K   22333.62084577  .00002887  00000-0  21271-3 0  9992"},{"PERIOD":"95.592","OBJECT_NAME":"STARLINK-2547","ELEMENT_SET_NO":"999","CENTER_NAME":"EARTH","SEMIMAJOR_AXIS":"6925.349","MEAN_ANOMALY":"272.5514","EPHEMERIS_TYPE":"0","BSTAR":"0.00017605000000","OBJECT_TYPE":"PAYLOAD","CLASSIFICATION_TYPE":"U","DECAY_DATE":null,"ECCENTRICITY":"0.00012860","TIME_SYSTEM":"UTC","NORAD_CAT_ID":"48286","FILE":"3673849","RCS_SIZE":"LARGE","REF_FRAME":"TEME","LAUNCH_DATE":"2021-04-29","MEAN_MOTION_DDOT":"0.0000000000000","INCLINATION":"53.0550","APOAPSIS":"548.105","COUNTRY_CODE":"US","OBJECT_ID":"2021-036L","MEAN_MOTION_DOT":"0.00002342","MEAN_ELEMENT_THEORY":"SGP4","EPOCH":"2022-11-29T14:50:03.693984","PERIAPSIS":"546.324","SITE":"AFETR","RA_OF_ASC_NODE":"50.9984","MEAN_MOTION":"15.06399743","ARG_OF_PERICENTER":"87.5622","TLE_LINE1":"1 48286U 21036L   22333.61809831  .00002342  00000-0  17605-3 0  9992","GP_ID":"219110599","TLE_LINE2":"2 48286  53.0550  50.9984 0001286  87.5622 272.5514 15.06399743 88032","REV_AT_EPOCH":"8803"},{"OBJECT_ID":"2021-036M","EPOCH":"2022-11-29T14:44:45.315168","MEAN_MOTION_DOT":"0.00002557","MEAN_ELEMENT_THEORY":"SGP4","APOAPSIS":"548.177","COUNTRY_CODE":"US","INCLINATION":"53.0556","MEAN_MOTION_DDOT":"0.0000000000000","LAUNCH_DATE":"2021-04-29","RCS_SIZE":"LARGE","REF_FRAME":"TEME","REV_AT_EPOCH":"8803","TLE_LINE1":"1 48287U 21036M   22333.61441337  .00002557  00000-0  19049-3 0  9998","TLE_LINE2":"2 48287  53.0556  51.0190 0001388  85.1187 274.9961 15.06399201 88034","GP_ID":"219111349","RA_OF_ASC_NODE":"51.0190","ARG_OF_PERICENTER":"85.1187","MEAN_MOTION":"15.06399201","PERIAPSIS":"546.255","SITE":"AFETR","EPHEMERIS_TYPE":"0","MEAN_ANOMALY":"274.9961","SEMIMAJOR_AXIS":"6925.351","ELEMENT_SET_NO":"999","CENTER_NAME":"EARTH","PERIOD":"95.592","OBJECT_NAME":"STARLINK-2566","TIME_SYSTEM":"UTC","NORAD_CAT_ID":"48287","FILE":"3673849","DECAY_DATE":null,"ECCENTRICITY":"0.00013880","CLASSIFICATION_TYPE":"U","OBJECT_TYPE":"PAYLOAD","BSTAR":"0.00019049000000"},{"SEMIMAJOR_AXIS":"6925.360","EPHEMERIS_TYPE":"0","MEAN_ANOMALY":"285.2852","PERIOD":"95.592","OBJECT_NAME":"STARLINK-2562","ELEMENT_SET_NO":"999","CENTER_NAME":"EARTH","DECAY_DATE":null,"ECCENTRICITY":"0.00014650","TIME_SYSTEM":"UTC","NORAD_CAT_ID":"48288","FILE":"3673849","BSTAR":"0.00019420000000","OBJECT_TYPE":"PAYLOAD","CLASSIFICATION_TYPE":"U","APOAPSIS":"548.239","COUNTRY_CODE":"US","OBJECT_ID":"2021-036N","MEAN_MOTION_DOT":"0.00002612","MEAN_ELEMENT_THEORY":"SGP4","EPOCH":"2022-11-29T14:38:05.613216","RCS_SIZE":"LARGE","REF_FRAME":"TEME","LAUNCH_DATE":"2021-04-29","MEAN_MOTION_DDOT":"0.0000000000000","INCLINATION":"53.0556","TLE_LINE1":"1 48288U 21036N   22333.60978719  .00002612  00000-0  19420-3 0  9992","GP_ID":"219110097","TLE_LINE2":"2 48288  53.0556  51.0262 0001465  74.8299 285.2852 15.06396314 88036","REV_AT_EPOCH":"8803","PERIAPSIS":"546.210","SITE":"AFETR","RA_OF_ASC_NODE":"51.0262","MEAN_MOTION":"15.06396314","ARG_OF_PERICENTER":"74.8299"},{"REV_AT_EPOCH":"8802","TLE_LINE1":"1 48289U 21036P   22333.54070466  .00001222  00000-0  10089-3 0  9996","GP_ID":"219109848","TLE_LINE2":"2 48289  53.0574  51.3496 0001566  59.9009 300.2135 15.06409441 88021","RA_OF_ASC_NODE":"51.3496","ARG_OF_PERICENTER":"59.9009","MEAN_MOTION":"15.06409441","PERIAPSIS":"546.100","SITE":"AFETR","OBJECT_ID":"2021-036P","MEAN_ELEMENT_THEORY":"SGP4","MEAN_MOTION_DOT":"0.00001222","EPOCH":"2022-11-29T12:58:36.882624","APOAPSIS":"548.269","COUNTRY_CODE":"US","LAUNCH_DATE":"2021-04-29","INCLINATION":"53.0574","MEAN_MOTION_DDOT":"0.0000000000000","RCS_SIZE":"LARGE","REF_FRAME":"TEME","TIME_SYSTEM":"UTC","NORAD_CAT_ID":"48289","FILE":"3673849","DECAY_DATE":null,"ECCENTRICITY":"0.00015660","CLASSIFICATION_TYPE":"U","BSTAR":"0.00010089000000","OBJECT_TYPE":"PAYLOAD","EPHEMERIS_TYPE":"0","MEAN_ANOMALY":"300.2135","SEMIMAJOR_AXIS":"6925.320","ELEMENT_SET_NO":"999","CENTER_NAME":"EARTH","PERIOD":"95.592","OBJECT_NAME":"STARLINK-2545"},{"LAUNCH_DATE":"2021-04-29","MEAN_MOTION_DDOT":"0.0000000000000","INCLINATION":"53.0555","RCS_SIZE":"LARGE","REF_FRAME":"TEME","OBJECT_ID":"2021-036Q","MEAN_ELEMENT_THEORY":"SGP4","MEAN_MOTION_DOT":"0.00001829","EPOCH":"2022-11-29T14:28:50.050848","APOAPSIS":"548.043","COUNTRY_CODE":"US","RA_OF_ASC_NODE":"51.0507","ARG_OF_PERICENTER":"66.2238","MEAN_MOTION":"15.06395641","PERIAPSIS":"546.411","SITE":"AFETR","REV_AT_EPOCH":"8803","TLE_LINE1":"1 48290U 21036Q   22333.60335707  .00001829  00000-0  14163-3 0  9997","GP_ID":"219111099","TLE_LINE2":"2 48290  53.0555  51.0507 0001178  66.2238 293.8874 15.06395641 88030","ELEMENT_SET_NO":"999","CENTER_NAME":"EARTH","PERIOD":"95.592","OBJECT_NAME":"STARLINK-2540","EPHEMERIS_TYPE":"0","MEAN_ANOMALY":"293.8874","SEMIMAJOR_AXIS":"6925.362","CLASSIFICATION_TYPE":"U","BSTAR":"0.00014163000000","OBJECT_TYPE":"PAYLOAD","TIME_SYSTEM":"UTC","FILE":"3673849","NORAD_CAT_ID":"48290","DECAY_DATE":null,"ECCENTRICITY":"0.00011780"},{"INCLINATION":"53.0555","MEAN_MOTION_DDOT":"0.0000000000000","LAUNCH_DATE":"2021-04-29","REF_FRAME":"TEME","RCS_SIZE":"LARGE","EPOCH":"2022-11-29T14:23:32.257824","MEAN_ELEMENT_THEORY":"SGP4","MEAN_MOTION_DOT":"0.00003170","OBJECT_ID":"2021-036R","COUNTRY_CODE":"US","APOAPSIS":"548.239","ARG_OF_PERICENTER":"56.8670","MEAN_MOTION":"15.06388870","RA_OF_ASC_NODE":"51.0670","SITE":"AFETR","PERIAPSIS":"546.257","REV_AT_EPOCH":"8803","TLE_LINE2":"2 48291  53.0555  51.0670 0001431  56.8670 303.2456 15.06388870 88037","GP_ID":"219110850","TLE_LINE1":"1 48291U 21036R   22333.59967891  .00003170  00000-0  23170-3 0  9990","CENTER_NAME":"EARTH","ELEMENT_SET_NO":"999","OBJECT_NAME":"STARLINK-2555","PERIOD":"95.593","EPHEMERIS_TYPE":"0","MEAN_ANOMALY":"303.2456","SEMIMAJOR_AXIS":"6925.383","CLASSIFICATION_TYPE":"U","BSTAR":"0.00023170000000","OBJECT_TYPE":"PAYLOAD","FILE":"3673849","NORAD_CAT_ID":"48291","TIME_SYSTEM":"UTC","ECCENTRICITY":"0.00014310","DECAY_DATE":null}];
